GLOBALSTAR M001         
1 25162U 98008A   24181.05198264 -.00000062  00000+0  26440-3 0  9999
2 25162  52.0041 281.0355 0001754 205.3108 326.4742 12.38187139200070
GLOBALSTAR M004         
1 25163U 98008B   24180.99354028 -.00000063  00000+0  22510-3 0  9999
2 25163  52.0011  51.6359 0002266 218.2750 228.6600 12.63363407217142
GLOBALSTAR M002         
1 25164U 98008C   24180.89869302 -.00000067  00000+0  17974-3 0  9997
2 25164  52.0033  46.0111 0000667 190.7383 169.3423 11.61502736143015
GLOBALSTAR M003         
1 25165U 98008D   24180.92090823  .00000038  00000+0  13559-2 0  9997
2 25165  51.9898  66.9268 0007570 306.1775 137.8063 12.12014438190381
GLOBALSTAR M015         
1 25308U 98023C   24181.17550000 -.00000131  00000+0 -13072-2 0  9995
2 25308  51.9822  97.5328 0012140 167.5179 341.8567 11.48852340153880
